GLOBALSTAR M084 [+]     
1 38040U 11080A   24113.78154976 -.00000091  00000+0  73707-4 0  9991
2 38040  52.0005 248.3394 0000738 138.9335   9.1293 12.62273712569571
GLOBALSTAR M080 [+]     
1 38041U 11080B   24114.53190248 -.00000098  00000+0  32447-4 0  9991
2 38041  52.0058 247.5165 0000947 140.9456 297.3058 12.62271571569937
GLOBALSTAR M082 [+]     
1 38042U 11080C   24114.21521682 -.00000072  00000+0  17918-3 0  9994
2 38042  52.0066 203.8830 0000416  40.4253 337.7958 12.62268364570634
GLOBALSTAR M092 [+]     
1 38043U 11080D   24113.81121036 -.00000051  00000+0  29589-3 0  9993
2 38043  52.0083 295.4658 0000589 118.2652 344.1973 12.62278981568864
GLOBALSTAR M090 [+]     
1 38044U 11080E   24114.41321348 -.00000030  00000+0  41316-3 0  9998
2 38044  51.9875 197.6283 0000408  75.7468   3.7754 12.62262183570642
GLOBALSTAR M086 [+]     
1 38045U 11080F   24113.74826802 -.00000066  00000+0  21266-3 0  9990
2 38045  51.9885 200.1719 0001403 113.4355  62.6638 12.62269886570461
GLOBALSTAR M097 [+]     
1 39072U 13005A   24113.41948328 -.00000088  00000+0  90128-4 0  9990
2 39072  52.0028 115.2929 0000547  66.0904 294.0020 12.62262550517674
GLOBALSTAR M093 [+]     
1 39073U 13005B   24114.18470016 -.00000086  00000+0  98417-4 0  9997
2 39073  51.9794 106.9369 0000657  58.7441 301.3489 12.62263458517842
